0 WESTFORD NEEDLES
1 20005U 63014EV  13282.41273913 -.00000411  00000-0 -84326-2 0  6379
2 20005 085.4892 258.6773 2294624 191.6271 337.1303 08.88430750790907
0 WESTFORD NEEDLES
1 20005U 63014EV  13283.37151644  .00000298  00000-0  10000-3 0  6382
2 20005 085.4669 258.5107 2303158 190.8116 163.4089 08.88426295784476
0 WESTFORD NEEDLES
1 20005U 63014EV  13283.42922300 -.00000905  00000-0 -18486-1 0  6395
2 20005 085.4865 258.4838 2293860 190.3915 348.2021 08.88429044790992
0 WESTFORD NEEDLES
1 20005U 63014EV  13286.35331821 -.00002022  00000-0 -41435-1 0  6406
2 20005 085.4766 257.9236 2291706 186.8360 340.5302 08.88418909791254
0 WESTFORD NEEDLES
1 20005U 63014EV  13287.69661006 -.00000942  00000-0 -19375-1 0  6413
2 20005 085.4835 257.6666 2291800 185.2684 316.8244 08.88426537791372
0 WESTFORD NEEDLES
1 20005U 63014EV  13289.39308240 -.00001006  00000-0 -20707-1 0  6424
2 20005 085.4759 257.3465 2291408 183.2284 342.7138 08.88419837791521
0 WESTFORD NEEDLES
1 20005U 63014EV  13290.40702513  .00001747  00000-0  35446-1 0  6436
2 20005 085.4687 257.1520 2292703 182.1274 345.5511 08.88418345791616
0 WESTFORD NEEDLES
1 20005U 63014EV  13295.36024223 -.00002528  00000-0 -52111-1 0  6440
2 20005 085.4613 256.2057 2290009 176.0830 347.3230 08.88382711792051
0 WESTFORD NEEDLES
1 20005U 63014EV  13295.69025628  .00005147  00000-0  10574+0 0  6450
2 20005 085.4417 256.1519 2289278 175.7103 322.7516 08.88393052792087
